ORBCOMM FM115           
1 41186U 15081H   25130.54372946  .00000779  00000+0  18684-3 0  9998
2 41186  46.9979 218.5813 0001715 253.2574 106.8125 14.62441435502268
ORBCOMM FM108           
1 41187U 15081J   25130.48373617  .00001079  00000+0  26877-3 0  9995
2 41187  47.0052 285.0205 0002527 156.7432 203.3568 14.58093260501299
ORBCOMM FM117           
1 41188U 15081K   25130.58700182  .00000935  00000+0  23783-3 0  9991
2 41188  47.0014 283.3074 0003060 162.7392 197.3598 14.58094956501353
ORBCOMM FM116           
1 41189U 15081L   25130.37047122  .00001209  00000+0  29665-3 0  9997
2 41189  47.0037  14.1767 0002581 332.4491  27.6257 14.58107286500134
